[{"OBJECT_NAME":"STARLINK-35359","OBJECT_ID":"2025-211U","EPOCH":"2026-03-09T16:12:16.598304","MEAN_MOTION":15.05651823,"ECCENTRICITY":0.00015534,"INCLINATION":97.6025,"RA_OF_ASC_NODE":114.1122,"ARG_OF_PERICENTER":125.7368,"MEAN_ANOMALY":234.4004,"EPHEMERIS_TYPE":0,"CLASSIFICATION_TYPE":"U","NORAD_CAT_ID":65670,"ELEMENT_SET_NO":999,"REV_AT_EPOCH":2704,"BSTAR":0.00026843515,"MEAN_MOTION_DOT":3.815e-5,"MEAN_MOTION_DDOT":0},{"OBJECT_NAME":"FENGYUN 1C DEB","OBJECT_ID":"1999-025CFL","EPOCH":"2026-03-09T13:21:18.531072","MEAN_MOTION":14.04672964,"ECCENTRICITY":0.04686899,"INCLINATION":98.6297,"RA_OF_ASC_NODE":293.4954,"ARG_OF_PERICENTER":18.1684,"MEAN_ANOMALY":343.5617,"EPHEMERIS_TYPE":0,"CLASSIFICATION_TYPE":"U","NORAD_CAT_ID":31761,"ELEMENT_SET_NO":999,"REV_AT_EPOCH":59329,"BSTAR":0.0014536026,"MEAN_MOTION_DOT":6.265e-5,"MEAN_MOTION_DDOT":0}]
